GLOBALSTAR M063         
1 26081U 00008A   24269.24745983 -.00000022  00000+0  89120-3 0  9997
2 26081  51.9937  89.3207 0005031 153.5235  18.0885 11.86159536126133
GLOBALSTAR M062         
1 26082U 00008B   24269.73877545 -.00000102  00000+0 -29964-4 0  9993
2 26082  51.9836 153.4357 0006295 271.2713 124.5048 12.43446490126229
GLOBALSTAR M060         
1 26083U 00008C   24269.49001234 -.00000101  00000+0 -98570-4 0  9999
2 26083  52.0012  76.7234 0002563 317.6161  74.9757 12.17644696120122
GLOBALSTAR M064         
1 26084U 00008D   24269.48127303 -.00000076  00000+0  10761-3 0  9990
2 26084  52.0021 190.6560 0001038 291.4114  68.6608 11.88523022135738
GLOBALSTAR M065         
1 31571U 07020A   24269.87628731  .00000030  00000+0  74914-3 0  9991
2 31571  51.9900 310.7322 0010288  81.7619  89.3433 12.61978570800343
GLOBALSTAR M069         
1 31573U 07020C   24269.31271387 -.00000060  00000+0  24954-3 0  9996
2 31573  51.9934 268.5322 0000339 310.8428  63.1655 12.58765592801095
GLOBALSTAR M072         
1 31574U 07020D   24269.57112713 -.00000078  00000+0  14286-3 0  9998
2 31574  52.0111   3.3900 0000817 129.2735 243.7769 12.62264487799401
GLOBALSTAR M071         
1 31576U 07020F   24269.28455108 -.00000064  00000+0  21929-3 0  9993
2 31576  52.0055 273.4767 0000729 270.6446 102.5490 12.62257641462283
